{
  "type": "FeatureCollection",
  "features": [
    {
      "type": "Feature",
      "properties": { "name": "India" },
      "geometry": {
        "type": "Polygon",
        "coordinates": [
          [
            [68.0, 8.0], [70.0, 8.0], [72.0, 9.0], [74.0, 9.5], [76.0, 9.0], [78.0, 9.5], [80.0, 10.0],
            [82.0, 11.0], [84.0, 12.5], [86.0, 13.0], [88.0, 14.0], [90.0, 15.0], [92.0, 16.0], [94.0, 17.0],
            [95.0, 18.0], [95.5, 19.5], [95.0, 21.0], [94.0, 22.5], [92.0, 23.5], [90.0, 24.5], [88.0, 25.5],
            [86.0, 26.0], [84.0, 26.5], [82.0, 27.0], [80.0, 27.0], [78.0, 26.5], [76.0, 25.5], [74.0, 24.0],
            [72.0, 22.5], [71.0, 21.0], [70.0, 20.0], [69.0, 18.5], [68.5, 16.0], [68.0, 14.0], [68.0, 12.0], [68.0, 8.0]
          ]
        ]
      }
    }
  ]
}